ATLAS CENTAUR 2         
1 00694U 63047A   26161.35492423  .00001321  00000+0  14742-3 0  9994
2 00694  30.3553  37.6012 0545980 177.2562 183.1218 14.12503922144732
THOR AGENA D R/B        
1 00733U 64002A   26161.59845656  .00000169  00000+0  77362-4 0  9993
2 00733  99.1156 179.9750 0032662 349.9843  10.0686 14.34063140251615
SL-3 R/B                
1 00877U 64053B   26161.41831428  .00000083  00000+0  40282-4 0  9997
2 00877  65.0775  59.3597 0081119 263.2334  95.9530 14.61423706280347
SL-8 R/B                
1 02802U 67045B   26161.51186813  .00000199  00000+0  62638-4 0  9990
2 02802  74.0093 174.7263 0063700 160.8389 199.5187 14.45679367102430
SL-8 R/B                
1 03230U 68040B   26161.59682212  .00002165  00000+0  15958-3 0  9991
2 03230  74.0296 123.7683 0026001 278.0083  81.8156 15.03784039103974
OAO 2                   
1 03597U 68110A   26161.56989130  .00000158  00000+0  47691-4 0  9991
2 03597  34.9931 106.6267 0006042 226.0600 133.9593 14.47349207 32561
ISIS 1                  
1 03669U 69009A   26161.19936003  .00000071  00000+0  53146-4 0  9995
2 03669  88.4420 145.1675 1706046 262.3499  78.1416 11.30433019358985
SERT 2                  
1 04327U 70009A   26161.57785394 -.00000016  00000+0  34466-4 0  9990
2 04327  99.2842  99.6457 0004042 294.1872 243.9763 13.58738708792502
SL-3 R/B                
1 05118U 71028B   26161.55198736  .00044500  00000+0  38103-3 0  9993
2 05118  81.2325 296.6423 0013795 304.8496  55.1464 15.69110577  3201
ASTEX 1                 
1 05560U 71089A   26161.58912943  .00000404  00000+0  10255-3 0  9991
2 05560  92.6998 181.7308 0017467 125.6421 234.6415 14.50846363875774
SL-8 R/B                
1 05730U 71119B   26161.62385989  .00003446  00000+0  17831-3 0  9999
2 05730  73.8880   1.7662 0543803 309.0583  46.3352 14.39465905668856
OAO 3 (COPERNICUS)      
1 06153U 72065A   26161.62427811  .00000248  00000+0  55027-4 0  9998
2 06153  35.0047 127.7994 0006936 205.6196 326.3977 14.60056613859784
ATLAS CENTAUR R/B       
1 06155U 72065B   26161.58982647  .00000986  00000+0  13696-3 0  9992
2 06155  35.0006 121.2182 0032822  72.1872 288.2405 14.77907508855010
SL-8 R/B                
1 08459U 75112B   26161.57193224  .00000175  00000+0  66226-4 0  9999
2 08459  74.0596 208.0437 0016853 275.7506  84.1726 14.38243028645220
SL-3 R/B                
1 10114U 77057B   26161.55819349  .00009591  00000+0  18693-3 0  9996
2 10114  97.5838 337.7794 0005656 314.5085  45.5702 15.47745502682680
SEASAT 1                
1 10967U 78064A   26161.32273901  .00000240  00000+0  10534-3 0  9992
2 10967 108.0165 319.8796 0002009 240.8836 119.2108 14.46238095519909
SL-14 R/B               
1 11267U 79011B   26161.60314710  .00000461  00000+0  42847-4 0  9992
2 11267  82.5242   8.4032 0017471 105.5924 254.7226 14.92008169542633
SL-8 R/B                
1 11574U 79089B   26161.61606648  .00000192  00000+0  65998-4 0  9996
2 11574  74.0695 279.0214 0014869  65.4469 294.8235 14.42401070449506
SL-14 R/B               
1 11672U 80005B   26161.61022197  .00000411  00000+0  38894-4 0  9995
2 11672  82.5145 219.0789 0014901 208.4262 151.6146 14.91023598490334
SL-8 R/B                
1 12139U 81003B   26161.60942527  .00013786  00000+0  33995-3 0  9995
2 12139  82.9373 203.8824 0250391 214.1928 144.2967 15.14023422328723
SL-3 R/B                
1 12465U 81046B   26161.57959030  .00010032  00000+0  21750-3 0  9994
2 12465  81.2300 178.0279 0019124  59.5623 300.7508 15.44059816452754
SL-3 R/B                
1 12904U 81103B   26161.54648860  .00003831  00000+0  16532-3 0  9990
2 12904  81.1577 104.4336 0012289 340.0644  20.0106 15.22228476987351
SL-3 R/B                
1 13068U 82013B   26161.52024514  .00003137  00000+0  13256-3 0  9994
2 13068  81.1747  51.8829 0020946 224.0764 135.8800 15.22744791418478
SL-3 R/B                
1 13154U 82039B   26161.60932630  .00003048  00000+0  18180-3 0  9996
2 13154  81.1425 108.6873 0029644  17.7555 342.4698 15.10498090395667
SL-3 R/B                
1 13403U 82079B   26161.55808459  .00003747  00000+0  14480-3 0  9997
2 13403  81.1462  83.3270 0023182 208.2813 151.7164 15.25733625391858
SL-14 R/B               
1 13553U 82092B   26161.65869449  .00000357  00000+0  37221-4 0  9998
2 13553  82.5686  54.4122 0020228 357.3757  65.2368 14.86743162342745
SL-3 R/B                
1 13819U 83010B   26161.59992865  .00013725  00000+0  25117-3 0  9999
2 13819  81.1020 248.0757 0015839  84.6230 275.6823 15.49064973372315
SL-3 R/B                
1 14208U 83075B   26161.57311690  .00008502  00000+0  21145-3 0  9996
2 14208  97.6106 169.8075 0018860 254.8685 105.0474 15.40372979344440
COSMOS 1536             
1 14699U 84013A   26161.60088004  .00005532  00000+0  22006-3 0  9994
2 14699  82.5455  15.4055 0013067 321.0828  38.9467 15.24984506286772
SL-14 R/B               
1 14820U 84027B   26161.48158140  .00000407  00000+0  43650-4 0  9995
2 14820  82.5408 158.0055 0018740  30.7415 329.4894 14.86054687261410
